[Satellite]
VERSION=1.1
NAME=BEESAT-3
NICKNAME=BEESAT-3
TLE1=1 39135U 13015F   19317.35679200  .00001101  00000-0  63306-4 0  9999
TLE2=2 39135  64.8667 282.3211 0039843 284.2918  75.3785 15.17724478362653
STATUS=0
